{
  "norad_id": 66662,
  "name": "2025-274N",
  "history": [
    {
      "epoch": "2026-03-28T19:04:27.614784Z",
      "apogee_km": 595.5233103059809,
      "perigee_km": 576.4399538655935,
      "latitude_deg": 2.532275952061689e-05,
      "longitude_deg": -93.91785611382613,
      "height_km": 585.880295364388,
      "semi_major_axis_km": 6964.118632085787,
      "eccentricity": 0.00137012,
      "inclination_deg": 97.7451,
      "raan_deg": 18.4073,
      "arg_perigee_deg": 289.2964,
      "mean_anomaly_deg": 70.6774,
      "mean_motion_rev_day": 14.93838063
    }
  ]
}